[{"OBJECT_NAME":"SURCAL 159","OBJECT_ID":"1967-053F","EPOCH":"2026-03-09T19:37:22.733472","MEAN_MOTION":13.99575786,"ECCENTRICITY":0.00094656,"INCLINATION":69.9733,"RA_OF_ASC_NODE":214.7987,"ARG_OF_PERICENTER":251.1876,"MEAN_ANOMALY":108.8205,"EPHEMERIS_TYPE":0,"CLASSIFICATION_TYPE":"U","NORAD_CAT_ID":2872,"ELEMENT_SET_NO":999,"REV_AT_EPOCH":99630,"BSTAR":0.00015093287,"MEAN_MOTION_DOT":1.67e-6,"MEAN_MOTION_DDOT":0},{"OBJECT_NAME":"DELTA 1 DEB","OBJECT_ID":"1978-026G","EPOCH":"2026-03-09T21:00:04.733856","MEAN_MOTION":14.15955145,"ECCENTRICITY":0.01594881,"INCLINATION":98.7484,"RA_OF_ASC_NODE":17.2698,"ARG_OF_PERICENTER":108.9497,"MEAN_ANOMALY":320.3759,"EPHEMERIS_TYPE":0,"CLASSIFICATION_TYPE":"U","NORAD_CAT_ID":12167,"ELEMENT_SET_NO":999,"REV_AT_EPOCH":31783,"BSTAR":0.00033296302,"MEAN_MOTION_DOT":7.01e-6,"MEAN_MOTION_DDOT":0}]
